FLOCK 4G-3              
1 62639U 25009AG  26068.80174065  .00011494  00000+0  43389-3 0  9993
2 62639  97.4062 151.4068 0001320 293.2042  66.9058 15.27179310 63727
STARLINK-35437          
1 66563U 25268G   26068.18425030  .00032250  00000+0  11759-2 0  9990
2 66563  43.0025 349.8196 0002268 262.1517  97.9078 15.27591418 17881
